{
  "type": "FeatureCollection",
  "features": [
    {
      "type": "Feature",
      "properties": {
        "norad_id": 37238,
        "name": "INTELSAT 17 (IS-17)",
        "group": "intelsat",
        "lat": -0.021863338788027507,
        "lon": -104.19247623763192,
        "alt_km": 35776.058832824754,
        "timestamp": "2025-12-15T07:02:37.282100+00:00",
        "meta_object_name": "INTELSAT 17 (IS-17)",
        "meta_object_id": "2010-065B",
        "meta_epoch": "2025-12-14T18:52:07.381920",
        "meta_mean_motion": 1.00272078,
        "meta_eccentricity": 0.00026647,
        "meta_inclination": 0.0268,
        "meta_ra_of_asc_node": 63.5665,
        "meta_arg_of_pericenter": 220.6858,
        "meta_mean_anomaly": 148.4551,
        "meta_ephemeris_type": 0,
        "meta_classification_type": "U",
        "meta_norad_cat_id": 37238,
        "meta_element_set_no": 999,
        "meta_rev_at_epoch": 5139,
        "meta_bstar": 0,
        "meta_mean_motion_dot": 0,
        "meta_mean_motion_ddot": 0,
        "tle_line1": "1 37238U 10065B   25348.78619655  .00000000  00000+0  00000+0 0  9992",
        "tle_line2": "2 37238   0.0268  63.5665 0002664 220.6858 148.4551  1.00272078 51394"
      },
      "geometry": {
        "type": "Point",
        "coordinates": [
          -104.19247623763192,
          -0.021863338788027507
        ]
      }
    },
    {
      "type": "Feature",
      "properties": {
        "norad_id": 37392,
        "name": "INTELSAT 28 (IS-28)",
        "group": "intelsat",
        "lat": 1.2731618850782394,
        "lon": 158.12709399082837,
        "alt_km": 35791.063052320314,
        "timestamp": "2025-12-15T07:02:37.282112+00:00",
        "meta_object_name": "INTELSAT 28 (IS-28)",
        "meta_object_id": "2011-016A",
        "meta_epoch": "2025-12-14T21:49:42.872736",
        "meta_mean_motion": 1.00272805,
        "meta_eccentricity": 0.00036956,
        "meta_inclination": 1.3301,
        "meta_ra_of_asc_node": 85.0315,
        "meta_arg_of_pericenter": 183.4005,
        "meta_mean_anomaly": 111.1414,
        "meta_ephemeris_type": 0,
        "meta_classification_type": "U",
        "meta_norad_cat_id": 37392,
        "meta_element_set_no": 999,
        "meta_rev_at_epoch": 5143,
        "meta_bstar": 0,
        "meta_mean_motion_dot": -2.05e-06,
        "meta_mean_motion_ddot": 0,
        "tle_line1": "1 37392U 11016A   25348.90952399 -.00000205  00000+0  00000+0 0  9997",
        "tle_line2": "2 37392   1.3301  85.0315 0003695 183.4005 111.1414  1.00272805 51431"
      },
      "geometry": {
        "type": "Point",
        "coordinates": [
          158.12709399082837,
          1.2731618850782394
        ]
      }
    },
    {
      "type": "Feature",
      "properties": {
        "norad_id": 37834,
        "name": "INTELSAT 18 (IS-18)",
        "group": "intelsat",
        "lat": 0.02505925761329052,
        "lon": 9.85740910154572,
        "alt_km": 35786.846394239525,
        "timestamp": "2025-12-15T07:02:37.282124+00:00",
        "meta_object_name": "INTELSAT 18 (IS-18)",
        "meta_object_id": "2011-056A",
        "meta_epoch": "2025-12-14T19:24:41.762880",
        "meta_mean_motion": 1.00271539,
        "meta_eccentricity": 0.00017512,
        "meta_inclination": 0.0192,
        "meta_ra_of_asc_node": 331.581,
        "meta_arg_of_pericenter": 302.7174,
        "meta_mean_anomaly": 280.591,
        "meta_ephemeris_type": 0,
        "meta_classification_type": "U",
        "meta_norad_cat_id": 37834,
        "meta_element_set_no": 999,
        "meta_rev_at_epoch": 5196,
        "meta_bstar": 0,
        "meta_mean_motion_dot": 7.2e-07,
        "meta_mean_motion_ddot": 0,
        "tle_line1": "1 37834U 11056A   25348.80881670  .00000072  00000+0  00000+0 0  9995",
        "tle_line2": "2 37834   0.0192 331.5810 0001751 302.7174 280.5910  1.00271539 51962"
      },
      "geometry": {
        "type": "Point",
        "coordinates": [
          9.85740910154572,
          0.02505925761329052
        ]
      }
    },
    {
      "type": "Feature",
      "properties": {
        "norad_id": 38098,
        "name": "INTELSAT 22 (IS-22)",
        "group": "intelsat",
        "lat": -0.03677669793134262,
        "lon": -98.0661874238766,
        "alt_km": 35779.390594554054,
        "timestamp": "2025-12-15T07:02:37.282137+00:00",
        "meta_object_name": "INTELSAT 22 (IS-22)",
        "meta_object_id": "2012-011A",
        "meta_epoch": "2025-12-14T22:19:17.539968",
        "meta_mean_motion": 1.00270521,
        "meta_eccentricity": 0.00017928,
        "meta_inclination": 0.0353,
        "meta_ra_of_asc_node": 46.3918,
        "meta_arg_of_pericenter": 237.2822,
        "meta_mean_anomaly": 207.0892,
        "meta_ephemeris_type": 0,
        "meta_classification_type": "U",
        "meta_norad_cat_id": 38098,
        "meta_element_set_no": 999,
        "meta_rev_at_epoch": 534,
        "meta_bstar": 0,
        "meta_mean_motion_dot": 0,
        "meta_mean_motion_ddot": 0,
        "tle_line1": "1 38098U 12011A   25348.93006412  .00000000  00000+0  00000+0 0  9998",
        "tle_line2": "2 38098   0.0353  46.3918 0001792 237.2822 207.0892  1.00270521  5345"
      },
      "geometry": {
        "type": "Point",
        "coordinates": [
          -98.0661874238766,
          -0.03677669793134262
        ]
      }
    },
    {
      "type": "Feature",
      "properties": {
        "norad_id": 38356,
        "name": "INTELSAT 19 (IS-19)",
        "group": "intelsat",
        "lat": 0.014036807917497913,
        "lon": -4.1049988873307415,
        "alt_km": 35784.43483224302,
        "timestamp": "2025-12-15T07:02:37.282149+00:00",
        "meta_object_name": "INTELSAT 19 (IS-19)",
        "meta_object_id": "2012-030A",
        "meta_epoch": "2025-12-14T21:03:24.807744",
        "meta_mean_motion": 1.00271713,
        "meta_eccentricity": 0.00032431,
        "meta_inclination": 0.0105,
        "meta_ra_of_asc_node": 327.5923,
        "meta_arg_of_pericenter": 305.3604,
        "meta_mean_anomaly": 292.704,
        "meta_ephemeris_type": 0,
        "meta_classification_type": "U",
        "meta_norad_cat_id": 38356,
        "meta_element_set_no": 999,
        "meta_rev_at_epoch": 4860,
        "meta_bstar": 0,
        "meta_mean_motion_dot": -3.6e-07,
        "meta_mean_motion_ddot": 0,
        "tle_line1": "1 38356U 12030A   25348.87737046 -.00000036  00000+0  00000+0 0  9993",
        "tle_line2": "2 38356   0.0105 327.5923 0003243 305.3604 292.7040  1.00271713 48601"
      },
      "geometry": {
        "type": "Point",
        "coordinates": [
          -4.1049988873307415,
          0.014036807917497913
        ]
      }
    },
    {
      "type": "Feature",
      "properties": {
        "norad_id": 38740,
        "name": "INTELSAT 20 (IS-20)",
        "group": "intelsat",
        "lat": -0.013177809799057433,
        "lon": -101.62452249417086,
        "alt_km": 35783.44683409161,
        "timestamp": "2025-12-15T07:02:37.282162+00:00",
        "meta_object_name": "INTELSAT 20 (IS-20)",
        "meta_object_id": "2012-043A",
        "meta_epoch": "2025-12-14T20:35:34.973088",
        "meta_mean_motion": 1.00270164,
        "meta_eccentricity": 0.00030706,
        "meta_inclination": 0.0039,
        "meta_ra_of_asc_node": 41.6169,
        "meta_arg_of_pericenter": 140.4065,
        "meta_mean_anomaly": 279.1424,
        "meta_ephemeris_type": 0,
        "meta_classification_type": "U",
        "meta_norad_cat_id": 38740,
        "meta_element_set_no": 999,
        "meta_rev_at_epoch": 4890,
        "meta_bstar": 0,
        "meta_mean_motion_dot": -4e-08,
        "meta_mean_motion_ddot": 0,
        "tle_line1": "1 38740U 12043A   25348.85804367 -.00000004  00000+0  00000+0 0  9998",
        "tle_line2": "2 38740   0.0039  41.6169 0003070 140.4065 279.1424  1.00270164 48904"
      },
      "geometry": {
        "type": "Point",
        "coordinates": [
          -101.62452249417086,
          -0.013177809799057433
        ]
      }
    },
    {
      "type": "Feature",
      "properties": {
        "norad_id": 38749,
        "name": "INTELSAT 21 (IS-21)",
        "group": "intelsat",
        "lat": 0.028676464474810603,
        "lon": 131.8344406604218,
        "alt_km": 35790.84444477514,
        "timestamp": "2025-12-15T07:02:37.282195+00:00",
        "meta_object_name": "INTELSAT 21 (IS-21)",
        "meta_object_id": "2012-045A",
        "meta_epoch": "2025-12-14T21:42:13.590144",
        "meta_mean_motion": 1.00271705,
        "meta_eccentricity": 0.00016983,
        "meta_inclination": 0.033,
        "meta_ra_of_asc_node": 77.1326,
        "meta_arg_of_pericenter": 185.5321,
        "meta_mean_anomaly": 88.7131,
        "meta_ephemeris_type": 0,
        "meta_classification_type": "U",
        "meta_norad_cat_id": 38749,
        "meta_element_set_no": 999,
        "meta_rev_at_epoch": 4867,
        "meta_bstar": 0,
        "meta_mean_motion_dot": -2.65e-06,
        "meta_mean_motion_ddot": 0,
        "tle_line1": "1 38749U 12045A   25348.90432396 -.00000265  00000+0  00000+0 0  9993",
        "tle_line2": "2 38749   0.0330  77.1326 0001698 185.5321  88.7131  1.00271705 48670"
      },
      "geometry": {
        "type": "Point",
        "coordinates": [
          131.8344406604218,
          0.028676464474810603
        ]
      }
    }
  ]
}